{
  "norad_id": 52493,
  "name": "STARLINK-3883",
  "history": [
    {
      "epoch": "2026-03-28T20:13:05.884608Z",
      "apogee_km": 540.6921020777709,
      "perigee_km": 538.7873339022399,
      "latitude_deg": 3.0064946242240615e-05,
      "longitude_deg": -166.39016887872432,
      "height_km": 540.5818924548348,
      "semi_major_axis_km": 6917.876717990005,
      "eccentricity": 0.00013767,
      "inclination_deg": 53.2174,
      "raan_deg": 323.1414,
      "arg_perigee_deg": 86.7792,
      "mean_anomaly_deg": 273.3358,
      "mean_motion_rev_day": 15.08841201
    },
    {
      "epoch": "2026-03-29T00:59:15.133632Z",
      "apogee_km": 540.7036046284175,
      "perigee_km": 538.766600439707,
      "latitude_deg": -2.7998360671342478e-05,
      "longitude_deg": 120.98308475339176,
      "height_km": 540.5821801394239,
      "semi_major_axis_km": 6917.872102534062,
      "eccentricity": 0.00014,
      "inclination_deg": 53.2175,
      "raan_deg": 322.2491,
      "arg_perigee_deg": 87.1241,
      "mean_anomaly_deg": 272.9911,
      "mean_motion_rev_day": 15.08842711
    },
    {
      "epoch": "2026-03-30T00:50:01.866048Z",
      "apogee_km": 540.6833374937469,
      "perigee_km": 538.7684730415695,
      "latitude_deg": 3.099647086911719e-05,
      "longitude_deg": 117.8481774047728,
      "height_km": 540.5870794888584,
      "semi_major_axis_km": 6917.862905267658,
      "eccentricity": 0.0001384,
      "inclination_deg": 53.2173,
      "raan_deg": 317.7882,
      "arg_perigee_deg": 87.9357,
      "mean_anomaly_deg": 272.1794,
      "mean_motion_rev_day": 15.0884572
    },
    {
      "epoch": "2026-03-30T00:50:01.866912Z",
      "apogee_km": 540.6834758510058,
      "perigee_km": 538.7683346843114,
      "latitude_deg": 2.9137621798191155e-05,
      "longitude_deg": 117.84817241282937,
      "height_km": 540.587074507101,
      "semi_major_axis_km": 6917.862905267658,
      "eccentricity": 0.00013842,
      "inclination_deg": 53.2173,
      "raan_deg": 317.7882,
      "arg_perigee_deg": 87.9357,
      "mean_anomaly_deg": 272.1794,
      "mean_motion_rev_day": 15.0884572
    },
    {
      "epoch": "2026-03-30T15:08:30.878880Z",
      "apogee_km": 540.7003037342583,
      "perigee_km": 538.8261062107267,
      "latitude_deg": -1.2325170088717713e-06,
      "longitude_deg": -100.03824377743706,
      "height_km": 540.7224274590676,
      "semi_major_axis_km": 6917.900204972492,
      "eccentricity": 0.00013546,
      "inclination_deg": 53.2175,
      "raan_deg": 315.1103,
      "arg_perigee_deg": 93.8853,
      "mean_anomaly_deg": 266.2294,
      "mean_motion_rev_day": 15.08833517
    },
    {
      "epoch": "2026-03-30T21:30:03.173184Z",
      "apogee_km": 540.6823356141585,
      "perigee_km": 538.8317989511606,
      "latitude_deg": 5.5759443512626994e-05,
      "longitude_deg": 163.12558565675837,
      "height_km": 540.8073071707913,
      "semi_major_axis_km": 6917.894067282659,
      "eccentricity": 0.00013375,
      "inclination_deg": 53.2189,
      "raan_deg": 313.9198,
      "arg_perigee_deg": 99.6015,
      "mean_anomaly_deg": 260.5129,
      "mean_motion_rev_day": 15.08835525
    },
    {
      "epoch": "2026-03-31T21:20:50.165664Z",
      "apogee_km": 540.5927417445528,
      "perigee_km": 538.8950937673353,
      "latitude_deg": 2.1549839878376183e-05,
      "longitude_deg": 159.99292328538152,
      "height_km": 540.652891515135,
      "semi_major_axis_km": 6917.880917755944,
      "eccentricity": 0.0001227,
      "inclination_deg": 53.2182,
      "raan_deg": 309.4623,
      "arg_perigee_deg": 90.8777,
      "mean_anomaly_deg": 269.2356,
      "mean_motion_rev_day": 15.08839827
    },
    {
      "epoch": "2026-04-01T21:11:37.433760Z",
      "apogee_km": 540.6712160217157,
      "perigee_km": 538.8365913540574,
      "latitude_deg": -3.4519548762295853e-06,
      "longitude_deg": 156.85601608964222,
      "height_km": 540.672750600006,
      "semi_major_axis_km": 6917.890903687887,
      "eccentricity": 0.0001326,
      "inclination_deg": 53.2179,
      "raan_deg": 305.0017,
      "arg_perigee_deg": 91.4393,
      "mean_anomaly_deg": 268.6751,
      "mean_motion_rev_day": 15.0883656
    },
    {
      "epoch": "2026-04-02T21:02:24.478080Z",
      "apogee_km": 540.6363112591107,
      "perigee_km": 538.8528813835792,
      "latitude_deg": 1.7757488014106637e-05,
      "longitude_deg": 153.7198777170379,
      "height_km": 540.6140816154201,
      "semi_major_axis_km": 6917.881596321345,
      "eccentricity": 0.0001289,
      "inclination_deg": 53.2183,
      "raan_deg": 300.5409,
      "arg_perigee_deg": 88.3026,
      "mean_anomaly_deg": 271.8114,
      "mean_motion_rev_day": 15.08839605
    },
    {
      "epoch": "2026-04-02T22:37:47.570880Z",
      "apogee_km": 540.6429796012671,
      "perigee_km": 538.8421171972268,
      "latitude_deg": -1.7402011586492583e-05,
      "longitude_deg": 129.5110429919384,
      "height_km": 540.6101533672277,
      "semi_major_axis_km": 6917.879548399246,
      "eccentricity": 0.00013016,
      "inclination_deg": 53.2184,
      "raan_deg": 300.2436,
      "arg_perigee_deg": 88.1994,
      "mean_anomaly_deg": 271.9147,
      "mean_motion_rev_day": 15.08840275
    },
    {
      "epoch": "2026-04-03T20:53:12.123744Z",
      "apogee_km": 540.6996948099995,
      "perigee_km": 538.8235607021525,
      "latitude_deg": 4.9629631918265614e-05,
      "longitude_deg": 150.58203407618305,
      "height_km": 540.6183536031199,
      "semi_major_axis_km": 6917.898627756076,
      "eccentricity": 0.0001356,
      "inclination_deg": 53.2185,
      "raan_deg": 296.0809,
      "arg_perigee_deg": 87.6114,
      "mean_anomaly_deg": 272.5034,
      "mean_motion_rev_day": 15.08834033
    }
  ]
}